NORAD_CAT_ID,OBJECT_NAME,OBJECT_TYPE,EPOCH,MEAN_MOTION,ECCENTRICITY,INCLINATION,RA_OF_ASC_NODE,ARG_OF_PERICENTER,MEAN_ANOMALY,BSTAR,MEAN_MOTION_DOT,MEAN_MOTION_DDOT,TLE_LINE0,TLE_LINE1,TLE_LINE2,SEMIMAJOR_AXIS,PERIOD,APOGEE,PERIGEE,DECAYED
51816.0,STARLINK-3603,PAYLOAD,2022-05-23 22:00:01,15.49082415,0.0001098,53.2176,73.6275,89.1931,345.7626,-0.0141639999999999,-0.00723332,0.0,0 STARLINK-3603,1 51816U 22017BA  22143.91668981 -.00723332  00000-0 -14164-1 0  9992,2 51816  53.2176  73.6275 0001098  89.1931 345.7626 15.49082415  1302,6797.545999999999,92.958,420.157,418.665,0.0
51816.0,STARLINK-3603,PAYLOAD,2022-05-24 03:52:36,15.49151542,0.0001224,53.2169,72.447,95.7709,264.344,-0.0028011,-0.00152384,0.0,0 STARLINK-3603,1 51816U 22017BA  22144.16152783 -.00152384  00000-0 -28011-2 0  9998,2 51816  53.2169  72.4470 0001224  95.7709 264.3440 15.49151542 15038,6797.344,92.954,420.041,418.377,0.0
51816.0,STARLINK-3603,PAYLOAD,2022-05-24 12:00:00,15.48188993,0.0001128,53.2174,70.84899999999998,100.8473,348.00300000000016,-0.014572,-0.00721264,0.0,0 STARLINK-3603,1 51816U 22017BA  22144.50001157 -.00721264  00000-0 -14572-1 0  9999,2 51816  53.2174  70.8490 0001128 100.8473 348.0030 15.48188993 15086,6800.161,93.012,422.793,421.259,0.0
51816.0,STARLINK-3603,PAYLOAD,2022-05-24 14:00:01,15.480600099999998,0.0001281,53.2174,70.4518,103.88,89.6692,-0.014579,-0.00718585,0.0,0 STARLINK-3603,1 51816U 22017BA  22144.58334491 -.00718585  00000-0 -14579-1 0  9996,2 51816  53.2174  70.4518 0001281 103.8800  89.6692 15.48060010  1301,6800.5390000000025,93.02,423.275,421.533,0.0
51816.0,STARLINK-3603,PAYLOAD,2022-05-24 22:00:00,15.47550801,0.0001308,53.2174,68.8665,98.7174,153.2406,-0.014873,-0.00720004,0.0,0 STARLINK-3603,1 51816U 22017BA  22144.91667824 -.00720004  00000-0 -14873-1 0  9998,2 51816  53.2174  68.8665 0001308  98.7174 153.2406 15.47550801  1303,6802.03,93.05,424.785,423.006,0.0
51816.0,STARLINK-3603,PAYLOAD,2022-05-25 12:00:00,15.46661336,0.0001246,53.2174,66.094,107.1081,155.5907,-0.015458,-0.00725061,0.0,0 STARLINK-3603,1 51816U 22017BA  22145.50001157 -.00725061  00000-0 -15458-1 0  9993,2 51816  53.2174  66.0940 0001246 107.1081 155.5907 15.46661336 15246,6804.638000000001,93.104,427.351,425.655,0.0
51816.0,STARLINK-3603,PAYLOAD,2022-05-25 14:00:01,15.46529609,0.0001111,53.2175,65.6981,109.371,257.5681,-0.015369,-0.00718123,0.0,0 STARLINK-3603,1 51816U 22017BA  22145.58334491 -.00718123  00000-0 -15369-1 0  9993,2 51816  53.2175  65.6981 0001111 109.3710 257.5681 15.46529609  1301,6805.024,93.112,427.645,426.133,0.0
51816.0,STARLINK-3603,PAYLOAD,2022-05-25 22:00:00,15.45937181,0.0001302,53.2174,64.1144,118.3912,305.1690000000001,-0.013314,-0.00609556,0.0,0 STARLINK-3603,1 51816U 22017BA  22145.91667824 -.00609556  00000-0 -13314-1 0  9996,2 51816  53.2174  64.1144 0001302 118.3912 305.1690 15.45937181  1308,6806.763000000001,93.147,429.514,427.742,0.0
51816.0,STARLINK-3603,PAYLOAD,2022-05-26 02:23:33,15.46882193,9.59e-05,53.2178,63.233,77.6599,282.4517,-0.0041784,-0.00208313,0.0,0 STARLINK-3603,1 51816U 22017BA  22146.09969892 -.00208313  00000-0 -41784-2 0  9995,2 51816  53.2178  63.2330 0000959  77.6599 282.4517 15.46882193 15330,6803.99,93.09,426.508,425.203,0.0
51816.0,STARLINK-3603,PAYLOAD,2022-05-26 03:56:39,15.46820817,0.000106,53.2177,62.9258,86.0834,274.0296,-0.0042693,-0.00212278,0.0,0 STARLINK-3603,1 51816U 22017BA  22146.16434524 -.00212278  00000-0 -42693-2 0  9997,2 51816  53.2177  62.9258 0001060  86.0834 274.0296 15.46820817 15341,6804.17,93.094,426.756,425.314,0.0
51816.0,STARLINK-3603,PAYLOAD,2022-05-26 12:00:00,15.4512835,0.0001102,53.2175,61.3504,98.5708,332.4632,-0.01617,-0.00719717,0.0,0 STARLINK-3603,1 51816U 22017BA  22146.50001157 -.00719717  00000-0 -16170-1 0  9997,2 51816  53.2175  61.3504 0001102  98.5708 332.4632 15.45128350 15391,6809.138000000001,93.196,431.753,430.253,0.0
51816.0,STARLINK-3603,PAYLOAD,2022-05-26 14:00:01,15.44999621,0.0001236,53.2174,60.9552,97.7572,77.0563,-0.016181,-0.00717245,0.0,0 STARLINK-3603,1 51816U 22017BA  22146.58334491 -.00717245  00000-0 -16181-1 0  9991,2 51816  53.2174  60.9552 0001236  97.7572  77.0563 15.44999621  1303,6809.516,93.204,432.223,430.54,0.0
51816.0,STARLINK-3603,PAYLOAD,2022-05-26 21:01:07,15.45793676,0.0002933,53.2175,59.5546,174.5696,185.5345,-0.0035798,-0.00172783,0.0,0 STARLINK-3603,1 51816U 22017BA  22146.87577652 -.00172783  00000-0 -35798-2 0  9999,2 51816  53.2175  59.5546 0002933 174.5696 185.5345 15.45793676 15331,6807.184,93.156,431.046,427.052,0.0
51816.0,STARLINK-3603,PAYLOAD,2022-05-27 01:40:46,15.45491812,0.0001283,53.2177,58.6359,124.2979,235.815,-0.0042177,-0.00200639,0.0,0 STARLINK-3603,1 51816U 22017BA  22147.06997898 -.00200639  00000-0 -42177-2 0  9990,2 51816  53.2177  58.6359 0001283 124.2979 235.8150 15.45491812 15484,6808.07,93.174,430.809,429.062,0.0
51816.0,STARLINK-3603,PAYLOAD,2022-05-27 11:00:06,15.4493638,0.0001862,53.2185,56.7996,115.3974,244.7227,-0.005042,-0.00234263,0.0,0 STARLINK-3603,1 51816U 22017BA  22147.45840534 -.00234263  00000-0 -50420-2 0  9997,2 51816  53.2185  56.7996 0001862 115.3974 244.7227 15.44936380 15542,6809.7019999999975,93.208,432.835,430.299,0.0
51816.0,STARLINK-3603,PAYLOAD,2022-05-27 14:00:01,15.43468837,0.0001105,53.2175,56.2234,99.5171,237.6562,-0.0170169999999999,-0.00715953,0.0,0 STARLINK-3603,1 51816U 22017BA  22147.58334491 -.00715953  00000-0 -17017-1 0  9995,2 51816  53.2175  56.2234 0001105  99.5171 237.6562 15.43468837  1301,6814.018,93.296,436.636,435.13,0.0
51816.0,STARLINK-3603,PAYLOAD,2022-05-27 20:00:01,15.43089204,0.000124,53.2177,55.0425,97.3191,189.5809,-0.017345,-0.007201,0.0,0 STARLINK-3603,1 51816U 22017BA  22147.83334491 -.00720100  00000-0 -17345-1 0  9997,2 51816  53.2177  55.0425 0001240  97.3191 189.5809 15.43089204 15604,6815.135,93.319,437.845,436.155,0.0
51816.0,STARLINK-3603,PAYLOAD,2022-05-27 21:52:43,15.44294541,0.0001104,53.218,54.6525,156.6141,203.4917,-0.0039558,-0.00181121,0.0,0 STARLINK-3603,1 51816U 22017BA  22147.91160904 -.00181121  00000-0 -39558-2 0  9997,2 51816  53.2180  54.6525 0001104 156.6141 203.4917 15.44294541 15493,6811.589,93.246,434.206,432.702,0.0
51816.0,STARLINK-3603,PAYLOAD,2022-05-28 04:06:01,15.43828181,0.0001307,53.2185,53.4323,130.6629,229.4492,-0.0049634,-0.00222406,0.0,0 STARLINK-3603,1 51816U 22017BA  22148.17085358 -.00222406  00000-0 -49634-2 0  9993,2 51816  53.2185  53.4323 0001307 130.6629 229.4492 15.43828181 15655,6812.96,93.275,435.716,433.935,0.0
51816.0,STARLINK-3603,PAYLOAD,2022-05-28 12:00:00,15.4206792,0.0001075,53.2175,51.8959,106.0967,285.0604,-0.017912,-0.00718529,0.0,0 STARLINK-3603,1 51816U 22017BA  22148.50001157 -.00718529  00000-0 -17912-1 0  9994,2 51816  53.2175  51.8959 0001075 106.0967 285.0604 15.42067920 15709,6818.144,93.381,440.742,439.276,0.0
51816.0,STARLINK-3603,PAYLOAD,2022-05-28 14:00:01,15.41940401,0.0001200999999999,53.2173,51.5026,101.0421,32.9749,-0.017983,-0.00718325,0.0,0 STARLINK-3603,1 51816U 22017BA  22148.58334491 -.00718325  00000-0 -17983-1 0  9994,2 51816  53.2173  51.5026 0001201 101.0421  32.9749 15.41940401  1303,6818.52,93.389,441.204,439.566,0.0
51816.0,STARLINK-3603,PAYLOAD,2022-05-28 21:12:40,15.42738693,0.0002417,53.2162,50.0707,141.0543,219.0639,-0.004828,-0.0020893,0.0,0 STARLINK-3603,1 51816U 22017BA  22148.88380189 -.00208930  00000-0 -48280-2 0  9993,2 51816  53.2162  50.0707 0002417 141.0543 219.0639 15.42738693 15647,6816.168000000002,93.34,439.68,436.385,0.0
51816.0,STARLINK-3603,PAYLOAD,2022-05-29 12:00:00,15.40537445,0.0001296,53.2174,47.185,101.0814,81.8646,-0.018804,-0.00716807,0.0,0 STARLINK-3603,1 51816U 22017BA  22149.50001157 -.00716807  00000-0 -18804-1 0  9993,2 51816  53.2174  47.1850 0001296 101.0814  81.8646 15.40537445 15853,6822.659000000002,93.474,445.408,443.64,0.0
51816.0,STARLINK-3603,PAYLOAD,2022-05-29 14:00:01,15.40409269,0.0001294,53.2173,46.7925,109.5476,175.7991,-0.018861,-0.00715984,0.0,0 STARLINK-3603,1 51816U 22017BA  22149.58334491 -.00715984  00000-0 -18861-1 0  9999,2 51816  53.2173  46.7925 0001294 109.5476 175.7991 15.40409269  1308,6823.038000000001,93.482,445.785,444.02,0.0
51816.0,STARLINK-3603,PAYLOAD,2022-05-29 22:07:17,15.41163389,0.0002327,53.217,45.1829,159.2598,200.8503,-0.0051169,-0.00210012,0.0,0 STARLINK-3603,1 51816U 22017BA  22149.92172497 -.00210012  00000-0 -51169-2 0  9994,2 51816  53.2170  45.1829 0002327 159.2598 200.8503 15.41163389 15806,6820.812,93.436,444.264,441.089,0.0
51816.0,STARLINK-3603,PAYLOAD,2022-05-30 04:21:09,15.40788958,0.000222,53.2176,43.9641,151.7315,208.3812,-0.0051242,-0.00207768,0.0,0 STARLINK-3603,1 51816U 22017BA  22150.18135706 -.00207768  00000-0 -51242-2 0  9992,2 51816  53.2176  43.9641 0002220 151.7315 208.3812 15.40788958 15963,6821.917,93.459,445.296,442.267,0.0
51816.0,STARLINK-3603,PAYLOAD,2022-05-30 12:00:00,15.39007358,0.0001233,53.2176,42.485,113.3615,215.8584,-0.019783,-0.00716837,0.0,0 STARLINK-3603,1 51816U 22017BA  22150.50001157 -.00716837  00000-0 -19783-1 0  9995,2 51816  53.2176  42.4850 0001233 113.3615 215.8584 15.39007358 16011,6827.18,93.567,449.887,448.204,0.0
51816.0,STARLINK-3603,PAYLOAD,2022-05-30 14:00:01,15.38758494,0.0001243,53.2173,42.0918,92.1142,339.1153,-0.015301,-0.00553937,0.0,0 STARLINK-3603,1 51816U 22017BA  22150.58334491 -.00553937  00000-0 -15301-1 0  9995,2 51816  53.2173  42.0918 0001243  92.1142 339.1153 15.38758494  1300,6827.916,93.582,450.63,448.9330000000001,0.0
51816.0,STARLINK-3603,PAYLOAD,2022-05-30 22:00:00,15.38267208,0.0001398,53.2174,40.5292,106.9481,11.6488,-0.016242,-0.00576865,0.0,0 STARLINK-3603,1 51816U 22017BA  22150.91667824 -.00576865  00000-0 -16242-1 0  9991,2 51816  53.2174  40.5292 0001398 106.9481  11.6488 15.38267208  1301,6829.37,93.612,452.19,450.28,0.0
